UNKNOWN                 
1 89492U          22324.03542805  .00000487  00000+0  34874-3 0  9999
2 89492  82.5303 247.8138 0027055 308.8116  51.0635 13.95171699411124
UNKNOWN                 
1 89493U          22323.56491892  .00001680  00000+0  98886-3 0  9995
2 89493  99.1077   5.1259 0090466 305.4760  53.7991 14.07382685306063
UNKNOWN                 
1 89494U          22324.57917110  .00001469  00000+0  86778-3 0  9996
2 89494  99.1083   6.1329 0091266 302.5927  56.6454 14.07360732306067
